0 FENGYUN 1C DEB
1 31435U 99025BTX 13281.68420375  .00000823  00000-0  20510-3 0  8062
2 31435 099.0484 094.1522 0164291 188.1122 235.5443 14.46949590340601
0 FENGYUN 1C DEB
1 31435U 99025BTX 13283.68916787  .00000812  00000-0  20243-3 0  8073
2 31435 099.0482 096.2950 0164377 182.1435 239.4449 14.46957447340893
0 FENGYUN 1C DEB
1 31435U 99025BTX 13285.69448037  .00000841  00000-0  20914-3 0  8082
2 31435 099.0480 098.4386 0164434 176.1879 245.1841 14.46959852341182
0 FENGYUN 1C DEB
1 31435U 99025BTX 13287.69965513  .00001088  00000-0  26646-3 0  8090
2 31435 099.0482 100.5813 0164516 170.2112 250.2543 14.46964676341478
0 FENGYUN 1C DEB
1 31435U 99025BTX 13289.70479286  .00001075  00000-0  26334-3 0  8103
2 31435 099.0485 102.7241 0164614 164.2452 255.1611 14.46970147341761
0 FENGYUN 1C DEB
1 31435U 99025BTX 13291.71052204  .00001115  00000-0  27234-3 0  8110
2 31435 099.0487 104.8676 0164713 158.2835 263.1841 14.46974537342050
0 FENGYUN 1C DEB
1 31435U 99025BTX 13294.28162156  .00001165  00000-0  28376-3 0  8127
2 31435 099.0488 107.6153 0164791 150.6350 336.3312 14.46982187342423
